STARLINK-36411          
1 67608U 26018V   26038.16668981 -.01657364  78188-3 -46154-2 0  9999
2 67608  97.2759 102.3818 0001554  68.5875  60.6979 15.93821098  2482
STARLINK-36312          
1 67609U 26018W   26038.16668981 -.01632924  76215-3 -44997-2 0  9997
2 67609  97.2762 102.3837 0001554  66.1974  66.9078 15.94018402  2490
STARLINK-36387          
1 67610U 26018X   26038.16668981 -.01622105  75476-3 -44109-2 0  9992
2 67610  97.2756 102.3857 0001521  67.2189  70.4300 15.94269728  2498
STARLINK-36636          
1 67611U 26018Y   26038.16668981 -.01634569  76709-3 -44004-2 0  9994
2 67611  97.2756 102.3868 0001550  67.6341  73.4120 15.94461468  2440
STARLINK-36407          
1 67612U 26018Z   26038.16668981 -.01615679  75185-3 -43157-2 0  9991
2 67612  97.2754 102.3887 0001440  68.9676  74.9935 15.94607307  2548
STARLINK-36597          
1 67613U 26018AA  26038.16668981 -.01632394  76783-3 -43186-2 0  9992
2 67613  97.2748 102.3898 0001662  71.8395  75.3403 15.94790658  2447
NEONSAT-1A              
1 67614U 26019A   26037.91751709  .00004219  00000+0  28105-3 0  9993
2 67614  97.4090 162.6055 0011764 280.9390  79.0515 15.07564083  1186
ELECTRON R/B            
1 67615U 26019B   26038.14123323  .02726812  21672-5  15681-2 0  9995
2 67615  97.4308 163.7662 0172477 197.8216 161.6964 15.94013624  1279
ELECTRON KICK STAGE R/B 
1 67616U 26019C   26037.87037612  .00355981  35899-4  19101-2 0  9999
2 67616  97.4060 163.1215 0195198 234.0714 124.2293 15.57807775  1216
STARLINK-36548          
1 67617U 26020A   26038.16668981 -.01705201  00000+0 -70240-2 0  9993
2 67617  42.9993 327.9754 0001561 272.8123 152.9451 15.87867225  2482
STARLINK-36601          
1 67618U 26020B   26038.16668981 -.01700219  00000+0 -69566-2 0  9997
2 67618  42.9995 327.9699 0001627 276.8830 151.1017 15.87990132  2488
STARLINK-36119          
1 67619U 26020C   26038.16668981 -.01702572  00000+0 -69365-2 0  9999
2 67619  42.9995 327.9656 0001666 275.9558 153.6744 15.88078614  2489
