CCSDS_OMM_VERS = 2.0
CREATION_DATE  = 
ORIGINATOR     = 

OBJECT_NAME    = STARLINK-36411
OBJECT_ID      = 2026-018V
CENTER_NAME    = EARTH
REF_FRAME      = TEME
TIME_SYSTEM    = UTC
MEAN_ELEMENT_THEORY = SGP/SGP4

EPOCH          = 2026-02-07T04:00:01.999584
MEAN_MOTION    = 15.93821098
ECCENTRICITY   = .0001554
INCLINATION    = 97.2759
RA_OF_ASC_NODE = 102.3818
ARG_OF_PERICENTER = 68.5875
MEAN_ANOMALY   = 60.6979

EPHEMERIS_TYPE = 0
CLASSIFICATION_TYPE = U
NORAD_CAT_ID   = 67608
ELEMENT_SET_NO = 999
REV_AT_EPOCH   = 248
BSTAR          = -.46154E-2
MEAN_MOTION_DOT = -.1657364E-1
MEAN_MOTION_DDOT = .78188E-3

CCSDS_OMM_VERS = 2.0
CREATION_DATE  = 
ORIGINATOR     = 

OBJECT_NAME    = STARLINK-36312
OBJECT_ID      = 2026-018W
CENTER_NAME    = EARTH
REF_FRAME      = TEME
TIME_SYSTEM    = UTC
MEAN_ELEMENT_THEORY = SGP/SGP4

EPOCH          = 2026-02-07T04:00:01.999584
MEAN_MOTION    = 15.94018402
ECCENTRICITY   = .0001554
INCLINATION    = 97.2762
RA_OF_ASC_NODE = 102.3837
ARG_OF_PERICENTER = 66.1974
MEAN_ANOMALY   = 66.9078

EPHEMERIS_TYPE = 0
CLASSIFICATION_TYPE = U
NORAD_CAT_ID   = 67609
ELEMENT_SET_NO = 999
REV_AT_EPOCH   = 249
BSTAR          = -.44997E-2
MEAN_MOTION_DOT = -.1632924E-1
MEAN_MOTION_DDOT = .76215E-3

CCSDS_OMM_VERS = 2.0
CREATION_DATE  = 
ORIGINATOR     = 

OBJECT_NAME    = STARLINK-36387
OBJECT_ID      = 2026-018X
CENTER_NAME    = EARTH
REF_FRAME      = TEME
TIME_SYSTEM    = UTC
MEAN_ELEMENT_THEORY = SGP/SGP4

EPOCH          = 2026-02-07T04:00:01.999584
MEAN_MOTION    = 15.94269728
ECCENTRICITY   = .0001521
INCLINATION    = 97.2756
RA_OF_ASC_NODE = 102.3857
ARG_OF_PERICENTER = 67.2189
MEAN_ANOMALY   = 70.4300

EPHEMERIS_TYPE = 0
CLASSIFICATION_TYPE = U
NORAD_CAT_ID   = 67610
ELEMENT_SET_NO = 999
REV_AT_EPOCH   = 249
BSTAR          = -.44109E-2
MEAN_MOTION_DOT = -.1622105E-1
MEAN_MOTION_DDOT = .75476E-3

CCSDS_OMM_VERS = 2.0
CREATION_DATE  = 
ORIGINATOR     = 

OBJECT_NAME    = STARLINK-36636
OBJECT_ID      = 2026-018Y
CENTER_NAME    = EARTH
REF_FRAME      = TEME
TIME_SYSTEM    = UTC
MEAN_ELEMENT_THEORY = SGP/SGP4

EPOCH          = 2026-02-07T04:00:01.999584
MEAN_MOTION    = 15.94461468
ECCENTRICITY   = .000155
INCLINATION    = 97.2756
RA_OF_ASC_NODE = 102.3868
ARG_OF_PERICENTER = 67.6341
MEAN_ANOMALY   = 73.4120

EPHEMERIS_TYPE = 0
CLASSIFICATION_TYPE = U
NORAD_CAT_ID   = 67611
ELEMENT_SET_NO = 999
REV_AT_EPOCH   = 244
BSTAR          = -.44004E-2
MEAN_MOTION_DOT = -.1634569E-1
MEAN_MOTION_DDOT = .76709E-3

CCSDS_OMM_VERS = 2.0
CREATION_DATE  = 
ORIGINATOR     = 

OBJECT_NAME    = STARLINK-36407
OBJECT_ID      = 2026-018Z
CENTER_NAME    = EARTH
REF_FRAME      = TEME
TIME_SYSTEM    = UTC
MEAN_ELEMENT_THEORY = SGP/SGP4

EPOCH          = 2026-02-07T04:00:01.999584
MEAN_MOTION    = 15.94607307
ECCENTRICITY   = .000144
INCLINATION    = 97.2754
RA_OF_ASC_NODE = 102.3887
ARG_OF_PERICENTER = 68.9676
MEAN_ANOMALY   = 74.9935

EPHEMERIS_TYPE = 0
CLASSIFICATION_TYPE = U
NORAD_CAT_ID   = 67612
ELEMENT_SET_NO = 999
REV_AT_EPOCH   = 254
BSTAR          = -.43157E-2
MEAN_MOTION_DOT = -.1615679E-1
MEAN_MOTION_DDOT = .75185E-3

CCSDS_OMM_VERS = 2.0
CREATION_DATE  = 
ORIGINATOR     = 

OBJECT_NAME    = STARLINK-36597
OBJECT_ID      = 2026-018AA
CENTER_NAME    = EARTH
REF_FRAME      = TEME
TIME_SYSTEM    = UTC
MEAN_ELEMENT_THEORY = SGP/SGP4

EPOCH          = 2026-02-07T04:00:01.999584
MEAN_MOTION    = 15.94790658
ECCENTRICITY   = .0001662
INCLINATION    = 97.2748
RA_OF_ASC_NODE = 102.3898
ARG_OF_PERICENTER = 71.8395
MEAN_ANOMALY   = 75.3403

EPHEMERIS_TYPE = 0
CLASSIFICATION_TYPE = U
NORAD_CAT_ID   = 67613
ELEMENT_SET_NO = 999
REV_AT_EPOCH   = 244
BSTAR          = -.43186E-2
MEAN_MOTION_DOT = -.1632394E-1
MEAN_MOTION_DDOT = .76783E-3

CCSDS_OMM_VERS = 2.0
CREATION_DATE  = 
ORIGINATOR     = 

OBJECT_NAME    = NEONSAT-1A
OBJECT_ID      = 2026-019A
CENTER_NAME    = EARTH
REF_FRAME      = TEME
TIME_SYSTEM    = UTC
MEAN_ELEMENT_THEORY = SGP/SGP4

EPOCH          = 2026-02-06T22:01:13.476576
MEAN_MOTION    = 15.07564083
ECCENTRICITY   = .0011764
INCLINATION    = 97.4090
RA_OF_ASC_NODE = 162.6055
ARG_OF_PERICENTER = 280.9390
MEAN_ANOMALY   = 79.0515

EPHEMERIS_TYPE = 0
CLASSIFICATION_TYPE = U
NORAD_CAT_ID   = 67614
ELEMENT_SET_NO = 999
REV_AT_EPOCH   = 118
BSTAR          = .28105E-3
MEAN_MOTION_DOT = .4219E-4
MEAN_MOTION_DDOT = 0

CCSDS_OMM_VERS = 2.0
CREATION_DATE  = 
ORIGINATOR     = 

OBJECT_NAME    = ELECTRON R/B
OBJECT_ID      = 2026-019B
CENTER_NAME    = EARTH
REF_FRAME      = TEME
TIME_SYSTEM    = UTC
MEAN_ELEMENT_THEORY = SGP/SGP4

EPOCH          = 2026-02-07T03:23:22.551072
MEAN_MOTION    = 15.94013624
ECCENTRICITY   = .0172477
INCLINATION    = 97.4308
RA_OF_ASC_NODE = 163.7662
ARG_OF_PERICENTER = 197.8216
MEAN_ANOMALY   = 161.6964

EPHEMERIS_TYPE = 0
CLASSIFICATION_TYPE = U
NORAD_CAT_ID   = 67615
ELEMENT_SET_NO = 999
REV_AT_EPOCH   = 127
BSTAR          = .15681E-2
MEAN_MOTION_DOT = .2726812E-1
MEAN_MOTION_DDOT = .21672E-5

CCSDS_OMM_VERS = 2.0
CREATION_DATE  = 
ORIGINATOR     = 

OBJECT_NAME    = ELECTRON KICK STAGE R/B
OBJECT_ID      = 2026-019C
CENTER_NAME    = EARTH
REF_FRAME      = TEME
TIME_SYSTEM    = UTC
MEAN_ELEMENT_THEORY = SGP/SGP4

EPOCH          = 2026-02-06T20:53:20.496768
MEAN_MOTION    = 15.57807775
ECCENTRICITY   = .0195198
INCLINATION    = 97.4060
RA_OF_ASC_NODE = 163.1215
ARG_OF_PERICENTER = 234.0714
MEAN_ANOMALY   = 124.2293

EPHEMERIS_TYPE = 0
CLASSIFICATION_TYPE = U
NORAD_CAT_ID   = 67616
ELEMENT_SET_NO = 999
REV_AT_EPOCH   = 121
BSTAR          = .19101E-2
MEAN_MOTION_DOT = .355981E-2
MEAN_MOTION_DDOT = .35899E-4

CCSDS_OMM_VERS = 2.0
CREATION_DATE  = 
ORIGINATOR     = 

OBJECT_NAME    = STARLINK-36548
OBJECT_ID      = 2026-020A
CENTER_NAME    = EARTH
REF_FRAME      = TEME
TIME_SYSTEM    = UTC
MEAN_ELEMENT_THEORY = SGP/SGP4

EPOCH          = 2026-02-07T04:00:01.999584
MEAN_MOTION    = 15.87867225
ECCENTRICITY   = .0001561
INCLINATION    = 42.9993
RA_OF_ASC_NODE = 327.9754
ARG_OF_PERICENTER = 272.8123
MEAN_ANOMALY   = 152.9451

EPHEMERIS_TYPE = 0
CLASSIFICATION_TYPE = U
NORAD_CAT_ID   = 67617
ELEMENT_SET_NO = 999
REV_AT_EPOCH   = 248
BSTAR          = -.7024E-2
MEAN_MOTION_DOT = -.1705201E-1
MEAN_MOTION_DDOT = 0

CCSDS_OMM_VERS = 2.0
CREATION_DATE  = 
ORIGINATOR     = 

OBJECT_NAME    = STARLINK-36601
OBJECT_ID      = 2026-020B
CENTER_NAME    = EARTH
REF_FRAME      = TEME
TIME_SYSTEM    = UTC
MEAN_ELEMENT_THEORY = SGP/SGP4

EPOCH          = 2026-02-07T04:00:01.999584
MEAN_MOTION    = 15.87990132
ECCENTRICITY   = .0001627
INCLINATION    = 42.9995
RA_OF_ASC_NODE = 327.9699
ARG_OF_PERICENTER = 276.8830
MEAN_ANOMALY   = 151.1017

EPHEMERIS_TYPE = 0
CLASSIFICATION_TYPE = U
NORAD_CAT_ID   = 67618
ELEMENT_SET_NO = 999
REV_AT_EPOCH   = 248
BSTAR          = -.69566E-2
MEAN_MOTION_DOT = -.1700219E-1
MEAN_MOTION_DDOT = 0

CCSDS_OMM_VERS = 2.0
CREATION_DATE  = 
ORIGINATOR     = 

OBJECT_NAME    = STARLINK-36119
OBJECT_ID      = 2026-020C
CENTER_NAME    = EARTH
REF_FRAME      = TEME
TIME_SYSTEM    = UTC
MEAN_ELEMENT_THEORY = SGP/SGP4

EPOCH          = 2026-02-07T04:00:01.999584
MEAN_MOTION    = 15.88078614
ECCENTRICITY   = .0001666
INCLINATION    = 42.9995
RA_OF_ASC_NODE = 327.9656
ARG_OF_PERICENTER = 275.9558
MEAN_ANOMALY   = 153.6744

EPHEMERIS_TYPE = 0
CLASSIFICATION_TYPE = U
NORAD_CAT_ID   = 67619
ELEMENT_SET_NO = 999
REV_AT_EPOCH   = 248
BSTAR          = -.69365E-2
MEAN_MOTION_DOT = -.1702572E-1
MEAN_MOTION_DDOT = 0

